{"type": "FeatureCollection", "features": [ {"type": "Feature", "properties": {"norad_id": 66645, "name": "SHENZHOU-22", "group": "last-30-days", "lat": -28.773959781733545, "lon": 168.55742440655308, "alt_km": 392.07523571061483, "timestamp": "2025-12-23T16:57:11.060146+00:00", "meta": {"OBJECT_NAME": "SHENZHOU-22", "OBJECT_ID": "2025-272A", "EPOCH": "2025-12-23T06:45:56.635200", "MEAN_MOTION": 15.59596422, "ECCENTRICITY": 0.0007971, "INCLINATION": 41.4686, "RA_OF_ASC_NODE": 312.6856, "ARG_OF_PERICENTER": 124.3462, "MEAN_ANOMALY": 235.8132, "EPHEMERIS_TYPE": 0, "CLASSIFICATION_TYPE": "U", "NORAD_CAT_ID": 66645, "ELEMENT_SET_NO": 999, "REV_AT_EPOCH": 26550, "BSTAR": 0.00022671035, "MEAN_MOTION_DOT": 0.00018298, "MEAN_MOTION_DDOT": 0}, "tle": {"line1": "1 66645U 25272A   25357.28190550  .00018298  00000+0  22671-3 0  9995", "line2": "2 66645  41.4686 312.6856 0007971 124.3462 235.8132 15.59596422265505"}}, "geometry": {"type": "Point", "coordinates": [168.55742440655308, -28.773959781733545]}}, {"type": "Feature", "properties": {"norad_id": 66647, "name": "COSMOS 2597 (RODNIK-S 22)", "group": "last-30-days", "lat": 22.58464165465673, "lon": 96.49863477734806, "alt_km": 1499.142871765278, "timestamp": "2025-12-23T16:57:11.060157+00:00", "meta": {"OBJECT_NAME": "COSMOS 2597 (RODNIK-S 22)", "OBJECT_ID": "2025-273A", "EPOCH": "2025-12-23T04:30:31.161888", "MEAN_MOTION": 12.41952133, "ECCENTRICITY": 0.00076072, "INCLINATION": 82.4994, "RA_OF_ASC_NODE": 279.9615, "ARG_OF_PERICENTER": 261.701, "MEAN_ANOMALY": 98.3207, "EPHEMERIS_TYPE": 0, "CLASSIFICATION_TYPE": "U", "NORAD_CAT_ID": 66647, "ELEMENT_SET_NO": 999, "REV_AT_EPOCH": 343, "BSTAR": 0.00018501124, "MEAN_MOTION_DOT": 3.5e-07, "MEAN_MOTION_DDOT": 0}, "tle": {"line1": "1 66647U 25273A   25357.18786067  .00000035  00000+0  18501-3 0  9998", "line2": "2 66647  82.4994 279.9615 0007607 261.7010  98.3207 12.41952133  3433"}}, "geometry": {"type": "Point", "coordinates": [96.49863477734806, 22.58464165465673]}}, {"type": "Feature", "properties": {"norad_id": 66648, "name": "COSMOS 2598 (RODNIK-S 23)", "group": "last-30-days", "lat": -62.57448249165502, "lon": 114.32584312450291, "alt_km": 1494.665566351452, "timestamp": "2025-12-23T16:57:11.060168+00:00", "meta": {"OBJECT_NAME": "COSMOS 2598 (RODNIK-S 23)", "OBJECT_ID": "2025-273B", "EPOCH": "2025-12-23T05:59:25.353600", "MEAN_MOTION": 12.43233505, "ECCENTRICITY": 0.00081548, "INCLINATION": 82.5032, "RA_OF_ASC_NODE": 279.9114, "ARG_OF_PERICENTER": 211.7728, "MEAN_ANOMALY": 148.2861, "EPHEMERIS_TYPE": 0, "CLASSIFICATION_TYPE": "U", "NORAD_CAT_ID": 66648, "ELEMENT_SET_NO": 999, "REV_AT_EPOCH": 344, "BSTAR": 8.7796486e-05, "MEAN_MOTION_DOT": 2.2e-07, "MEAN_MOTION_DDOT": 0}, "tle": {"line1": "1 66648U 25273B   25357.24959900  .00000022  00000+0  87796-4 0  9993", "line2": "2 66648  82.5032 279.9114 0008154 211.7728 148.2861 12.43233505  3440"}}, "geometry": {"type": "Point", "coordinates": [114.32584312450291, -62.57448249165502]}}, {"type": "Feature", "properties": {"norad_id": 66649, "name": "COSMOS 2599 (RODNIK-S 24)", "group": "last-30-days", "lat": 71.5023457501841, "lon": 76.50203674186527, "alt_km": 1498.795290126186, "timestamp": "2025-12-23T16:57:11.060178+00:00", "meta": {"OBJECT_NAME": "COSMOS 2599 (RODNIK-S 24)", "OBJECT_ID": "2025-273C", "EPOCH": "2025-12-23T06:42:19.022112", "MEAN_MOTION": 12.41151866, "ECCENTRICITY": 0.00062122, "INCLINATION": 82.5049, "RA_OF_ASC_NODE": 279.9371, "ARG_OF_PERICENTER": 252.2184, "MEAN_ANOMALY": 107.8217, "EPHEMERIS_TYPE": 0, "CLASSIFICATION_TYPE": "U", "NORAD_CAT_ID": 66649, "ELEMENT_SET_NO": 999, "REV_AT_EPOCH": 344, "BSTAR": 0.00082606824, "MEAN_MOTION_DOT": 1.22e-06, "MEAN_MOTION_DDOT": 0}, "tle": {"line1": "1 66649U 25273C   25357.27938683  .00000122  00000+0  82607-3 0  9998", "line2": "2 66649  82.5049 279.9371 0006212 252.2184 107.8217 12.41151866  3446"}}, "geometry": {"type": "Point", "coordinates": [76.50203674186527, 71.5023457501841]}}, {"type": "Feature", "properties": {"norad_id": 66650, "name": "BEE-1000", "group": "last-30-days", "lat": 71.57102203176179, "lon": 128.7846866169437, "alt_km": 587.6388193227185, "timestamp": "2025-12-23T16:57:11.060189+00:00", "meta": {"OBJECT_NAME": "BEE-1000", "OBJECT_ID": "2025-274A", "EPOCH": "2025-12-23T05:12:21.997728", "MEAN_MOTION": 14.91694831, "ECCENTRICITY": 0.00109543, "INCLINATION": 97.7405, "RA_OF_ASC_NODE": 284.2127, "ARG_OF_PERICENTER": 212.7369, "MEAN_ANOMALY": 147.3172, "EPHEMERIS_TYPE": 0, "CLASSIFICATION_TYPE": "U", "NORAD_CAT_ID": 66650, "ELEMENT_SET_NO": 999, "REV_AT_EPOCH": 396, "BSTAR": 0.00016874128, "MEAN_MOTION_DOT": 1.643e-05, "MEAN_MOTION_DDOT": 0}, "tle": {"line1": "1 66650U 25274A   25357.21692127  .00001643  00000+0  16874-3 0  9997", "line2": "2 66650  97.7405 284.2127 0010954 212.7369 147.3172 14.91694831  3961"}}, "geometry": {"type": "Point", "coordinates": [128.7846866169437, 71.57102203176179]}}, {"type": "Feature", "properties": {"norad_id": 66651, "name": "2025-274B", "group": "last-30-days", "lat": 61.099582221388125, "lon": 118.95952437597103, "alt_km": 586.4072989084925, "timestamp": "2025-12-23T16:57:11.060199+00:00", "meta": {"OBJECT_NAME": "2025-274B", "OBJECT_ID": "2025-274B", "EPOCH": "2025-12-23T01:56:17.627712", "MEAN_MOTION": 14.91867195, "ECCENTRICITY": 0.00112002, "INCLINATION": 97.7401, "RA_OF_ASC_NODE": 284.0819, "ARG_OF_PERICENTER": 211.7357, "MEAN_ANOMALY": 148.3188, "EPHEMERIS_TYPE": 0, "CLASSIFICATION_TYPE": "U", "NORAD_CAT_ID": 66651, "ELEMENT_SET_NO": 999, "REV_AT_EPOCH": 394, "BSTAR": 0.00041358123, "MEAN_MOTION_DOT": 4.128e-05, "MEAN_MOTION_DDOT": 0}, "tle": {"line1": "1 66651U 25274B   25357.08075958  .00004128  00000+0  41358-3 0  9996", "line2": "2 66651  97.7401 284.0819 0011200 211.7357 148.3188 14.91867195  3946"}}, "geometry": {"type": "Point", "coordinates": [118.95952437597103, 61.099582221388125]}}, {"type": "Feature", "properties": {"norad_id": 66652, "name": "2025-274C", "group": "last-30-days", "lat": 49.9613079664055, "lon": 114.01865445581805, "alt_km": 586.9279490471909, "timestamp": "2025-12-23T16:57:11.060209+00:00", "meta": {"OBJECT_NAME": "2025-274C", "OBJECT_ID": "2025-274C", "EPOCH": "2025-12-22T17:50:23.159904", "MEAN_MOTION": 14.91954648, "ECCENTRICITY": 0.00107138, "INCLINATION": 97.7406, "RA_OF_ASC_NODE": 283.7568, "ARG_OF_PERICENTER": 219.8333, "MEAN_ANOMALY": 140.21, "EPHEMERIS_TYPE": 0, "CLASSIFICATION_TYPE": "U", "NORAD_CAT_ID": 66652, "ELEMENT_SET_NO": 999, "REV_AT_EPOCH": 389, "BSTAR": 0.0003357438, "MEAN_MOTION_DOT": 3.347e-05, "MEAN_MOTION_DDOT": 0}, "tle": {"line1": "1 66652U 25274C   25356.74332361  .00003347  00000+0  33574-3 0  9996", "line2": "2 66652  97.7406 283.7568 0010713 219.8333 140.2100 14.91954648  3899"}}, "geometry": {"type": "Point", "coordinates": [114.01865445581805, 49.9613079664055]}}, {"type": "Feature", "properties": {"norad_id": 66653, "name": "2025-274D", "group": "last-30-days", "lat": 49.55943538945226, "lon": 113.88527028423935, "alt_km": 586.4856011169022, "timestamp": "2025-12-23T16:57:11.060222+00:00", "meta": {"OBJECT_NAME": "2025-274D", "OBJECT_ID": "2025-274D", "EPOCH": "2025-12-22T01:44:29.360256", "MEAN_MOTION": 14.91947485, "ECCENTRICITY": 0.00116201, "INCLINATION": 97.7403, "RA_OF_ASC_NODE": 283.0978, "ARG_OF_PERICENTER": 219.0062, "MEAN_ANOMALY": 141.0319, "EPHEMERIS_TYPE": 0, "CLASSIFICATION_TYPE": "U", "NORAD_CAT_ID": 66653, "ELEMENT_SET_NO": 999, "REV_AT_EPOCH": 379, "BSTAR": 0.00020975597, "MEAN_MOTION_DOT": 2.07e-05, "MEAN_MOTION_DDOT": 0}, "tle": {"line1": "1 66653U 25274D   25356.07256204  .00002070  00000+0  20976-3 0  9998", "line2": "2 66653  97.7403 283.0978 0011620 219.0062 141.0319 14.91947485  3795"}}, "geometry": {"type": "Point", "coordinates": [113.88527028423935, 49.55943538945226]}}, {"type": "Feature", "properties": {"norad_id": 66654, "name": "JACK E", "group": "last-30-days", "lat": 33.03454029398329, "lon": 109.7848903198227, "alt_km": 586.132203450733, "timestamp": "2025-12-23T16:57:11.060234+00:00", "meta": {"OBJECT_NAME": "JACK E", "OBJECT_ID": "2025-274E", "EPOCH": "2025-12-23T01:48:45.900000", "MEAN_MOTION": 14.9213434, "ECCENTRICITY": 0.00122616, "INCLINATION": 97.7407, "RA_OF_ASC_NODE": 284.0907, "ARG_OF_PERICENTER": 216.9513, "MEAN_ANOMALY": 143.0862, "EPHEMERIS_TYPE": 0, "CLASSIFICATION_TYPE": "U", "NORAD_CAT_ID": 66654, "ELEMENT_SET_NO": 999, "REV_AT_EPOCH": 394, "BSTAR": 0.00030189509, "MEAN_MOTION_DOT": 3.018e-05, "MEAN_MOTION_DDOT": 0}, "tle": {"line1": "1 66654U 25274E   25357.07553125  .00003018  00000+0  30190-3 0  9994", "line2": "2 66654  97.7407 284.0907 0012261 216.9513 143.0862 14.92134340  3943"}}, "geometry": {"type": "Point", "coordinates": [109.7848903198227, 33.03454029398329]}}, {"type": "Feature", "properties": {"norad_id": 66655, "name": "2025-274F", "group": "last-30-days", "lat": 65.84885800617538, "lon": 122.3209221244497, "alt_km": 590.059094195225, "timestamp": "2025-12-23T16:57:11.060244+00:00", "meta": {"OBJECT_NAME": "2025-274F", "OBJECT_ID": "2025-274F", "EPOCH": "2025-12-22T19:30:46.040832", "MEAN_MOTION": 14.91185344, "ECCENTRICITY": 0.0005049, "INCLINATION": 97.7313, "RA_OF_ASC_NODE": 283.809, "ARG_OF_PERICENTER": 346.5014, "MEAN_ANOMALY": 13.6069, "EPHEMERIS_TYPE": 0, "CLASSIFICATION_TYPE": "U", "NORAD_CAT_ID": 66655, "ELEMENT_SET_NO": 999, "REV_AT_EPOCH": 390, "BSTAR": 2.0395e-05, "MEAN_MOTION_DOT": 1.48e-06, "MEAN_MOTION_DDOT": 0}, "tle": {"line1": "1 66655U 25274F   25356.81303288  .00000148  00000+0  20395-4 0  9997", "line2": "2 66655  97.7313 283.8090 0005049 346.5014  13.6069 14.91185344  3908"}}, "geometry": {"type": "Point", "coordinates": [122.3209221244497, 65.84885800617538]}}]}